ION SCV-004             
1 50993U 22002K   26068.68892644  .00006538  00000+0  23198-3 0  9998
2 50993  97.2961 128.2294 0007216   1.6783 358.4480 15.29369331230088
STARLINK-30105          
1 57433U 23105D   26068.28525767  .00000208  00000+0  17084-4 0  9990
2 57433  43.0064  33.1157 0001077 264.5620  95.5109 15.27578600148262
